{
  "type": "FeatureCollection",
  "features": [
    {
      "type": "Feature",
      "properties": {
        "norad_id": 30290,
        "name": "FENGYUN 1C DEB",
        "group": "fengyun-1c-debris",
        "lat": -69.38925653429028,
        "lon": 140.5992802675417,
        "alt_km": 650.8248904086568,
        "timestamp": "2025-12-22T16:55:17.738408+00:00",
        "meta_object_name": "FENGYUN 1C DEB",
        "meta_object_id": "1999-025ZB",
        "meta_epoch": "2025-12-22T06:00:01.513728",
        "meta_mean_motion": 14.75448987,
        "meta_eccentricity": 0.00168733,
        "meta_inclination": 102.6221,
        "meta_ra_of_asc_node": 103.3215,
        "meta_arg_of_pericenter": 18.3483,
        "meta_mean_anomaly": 12.4639,
        "meta_ephemeris_type": 0,
        "meta_classification_type": "U",
        "meta_norad_cat_id": 30290,
        "meta_element_set_no": 999,
        "meta_rev_at_epoch": 98019,
        "meta_bstar": 0.0055373657,
        "meta_mean_motion_dot": 0.00037861,
        "meta_mean_motion_ddot": 0,
        "tle_line1": "1 30290U 99025ZB  25356.25001752  .00037861  00000+0  55374-2 0  9992",
        "tle_line2": "2 30290 102.6221 103.3215 0016873  18.3483  12.4639 14.75448987980196"
      },
      "geometry": {
        "type": "Point",
        "coordinates": [
          140.5992802675417,
          -69.38925653429028
        ]
      }
    },
    {
      "type": "Feature",
      "properties": {
        "norad_id": 30291,
        "name": "FENGYUN 1C DEB",
        "group": "fengyun-1c-debris",
        "lat": 19.73657374561359,
        "lon": -118.44424904134799,
        "alt_km": 641.1218757391553,
        "timestamp": "2025-12-22T16:55:17.738418+00:00",
        "meta_object_name": "FENGYUN 1C DEB",
        "meta_object_id": "1999-025ZC",
        "meta_epoch": "2025-12-22T04:21:58.245696",
        "meta_mean_motion": 14.55456132,
        "meta_eccentricity": 0.0110917,
        "meta_inclination": 97.2317,
        "meta_ra_of_asc_node": 243.7134,
        "meta_arg_of_pericenter": 349.5863,
        "meta_mean_anomaly": 170.3221,
        "meta_ephemeris_type": 0,
        "meta_classification_type": "U",
        "meta_norad_cat_id": 30291,
        "meta_element_set_no": 999,
        "meta_rev_at_epoch": 97845,
        "meta_bstar": 0.0031054498,
        "meta_mean_motion_dot": 0.00014656,
        "meta_mean_motion_ddot": 0,
        "tle_line1": "1 30291U 99025ZC  25356.18192414  .00014656  00000+0  31054-2 0  9997",
        "tle_line2": "2 30291  97.2317 243.7134 0110917 349.5863 170.3221 14.55456132978452"
      },
      "geometry": {
        "type": "Point",
        "coordinates": [
          -118.44424904134799,
          19.73657374561359
        ]
      }
    },
    {
      "type": "Feature",
      "properties": {
        "norad_id": 30293,
        "name": "FENGYUN 1C DEB",
        "group": "fengyun-1c-debris",
        "lat": 46.92302450907277,
        "lon": 178.54494273250197,
        "alt_km": 681.2269951373373,
        "timestamp": "2025-12-22T16:55:17.738429+00:00",
        "meta_object_name": "FENGYUN 1C DEB",
        "meta_object_id": "1999-025ZE",
        "meta_epoch": "2025-12-22T07:34:11.043840",
        "meta_mean_motion": 14.48994825,
        "meta_eccentricity": 0.00768146,
        "meta_inclination": 99.2543,
        "meta_ra_of_asc_node": 188.1602,
        "meta_arg_of_pericenter": 86.3876,
        "meta_mean_anomaly": 90.4938,
        "meta_ephemeris_type": 0,
        "meta_classification_type": "U",
        "meta_norad_cat_id": 30293,
        "meta_element_set_no": 999,
        "meta_rev_at_epoch": 99115,
        "meta_bstar": 0.00070350026,
        "meta_mean_motion_dot": 2.715e-05,
        "meta_mean_motion_ddot": 0,
        "tle_line1": "1 30293U 99025ZE  25356.31540560  .00002715  00000+0  70350-3 0  9999",
        "tle_line2": "2 30293  99.2543 188.1602 0076814  86.3876  90.4938 14.48994825991153"
      },
      "geometry": {
        "type": "Point",
        "coordinates": [
          178.54494273250197,
          46.92302450907277
        ]
      }
    },
    {
      "type": "Feature",
      "properties": {
        "norad_id": 30294,
        "name": "FENGYUN 1C DEB",
        "group": "fengyun-1c-debris",
        "lat": -4.971677167976215,
        "lon": 163.90274324918897,
        "alt_km": 788.0560458393138,
        "timestamp": "2025-12-22T16:55:17.738440+00:00",
        "meta_object_name": "FENGYUN 1C DEB",
        "meta_object_id": "1999-025ZF",
        "meta_epoch": "2025-12-21T21:54:23.461056",
        "meta_mean_motion": 14.34974746,
        "meta_eccentricity": 0.01971602,
        "meta_inclination": 98.3565,
        "meta_ra_of_asc_node": 343.868,
        "meta_arg_of_pericenter": 282.1918,
        "meta_mean_anomaly": 134.4064,
        "meta_ephemeris_type": 0,
        "meta_classification_type": "U",
        "meta_norad_cat_id": 30294,
        "meta_element_set_no": 999,
        "meta_rev_at_epoch": 98668,
        "meta_bstar": 0.00032243263,
        "meta_mean_motion_dot": 1.092e-05,
        "meta_mean_motion_ddot": 0,
        "tle_line1": "1 30294U 99025ZF  25355.91277154  .00001092  00000+0  32243-3 0  9997",
        "tle_line2": "2 30294  98.3565 343.8680 0197160 282.1918 134.4064 14.34974746986681"
      },
      "geometry": {
        "type": "Point",
        "coordinates": [
          163.90274324918897,
          -4.971677167976215
        ]
      }
    },
    {
      "type": "Feature",
      "properties": {
        "norad_id": 30295,
        "name": "FENGYUN 1C DEB",
        "group": "fengyun-1c-debris",
        "lat": 43.51506423308883,
        "lon": -152.97963650631567,
        "alt_km": 794.7639875908753,
        "timestamp": "2025-12-22T16:55:17.738450+00:00",
        "meta_object_name": "FENGYUN 1C DEB",
        "meta_object_id": "1999-025ZG",
        "meta_epoch": "2025-12-21T18:38:47.696352",
        "meta_mean_motion": 14.25050898,
        "meta_eccentricity": 0.00942984,
        "meta_inclination": 98.5075,
        "meta_ra_of_asc_node": 17.9502,
        "meta_arg_of_pericenter": 56.3562,
        "meta_mean_anomaly": 359.6287,
        "meta_ephemeris_type": 0,
        "meta_classification_type": "U",
        "meta_norad_cat_id": 30295,
        "meta_element_set_no": 999,
        "meta_rev_at_epoch": 98305,
        "meta_bstar": 0.00013275257,
        "meta_mean_motion_dot": 2.84e-06,
        "meta_mean_motion_ddot": 0,
        "tle_line1": "1 30295U 99025ZG  25355.77694093  .00000284  00000+0  13275-3 0  9993",
        "tle_line2": "2 30295  98.5075  17.9502 0094298  56.3562 359.6287 14.25050898983055"
      },
      "geometry": {
        "type": "Point",
        "coordinates": [
          -152.97963650631567,
          43.51506423308883
        ]
      }
    },
    {
      "type": "Feature",
      "properties": {
        "norad_id": 30297,
        "name": "FENGYUN 1C DEB",
        "group": "fengyun-1c-debris",
        "lat": -42.04432412912338,
        "lon": -43.68490073492098,
        "alt_km": 992.8484980653748,
        "timestamp": "2025-12-22T16:55:17.738461+00:00",
        "meta_object_name": "FENGYUN 1C DEB",
        "meta_object_id": "1999-025ZJ",
        "meta_epoch": "2025-12-22T03:40:41.103264",
        "meta_mean_motion": 14.218955,
        "meta_eccentricity": 0.03797444,
        "meta_inclination": 98.8132,
        "meta_ra_of_asc_node": 307.7198,
        "meta_arg_of_pericenter": 88.474,
        "meta_mean_anomaly": 289.3269,
        "meta_ephemeris_type": 0,
        "meta_classification_type": "U",
        "meta_norad_cat_id": 30297,
        "meta_element_set_no": 999,
        "meta_rev_at_epoch": 95286,
        "meta_bstar": 0.0014853729,
        "meta_mean_motion_dot": 6.83e-05,
        "meta_mean_motion_ddot": 0,
        "tle_line1": "1 30297U 99025ZJ  25356.15325351  .00006830  00000+0  14854-2 0  9992",
        "tle_line2": "2 30297  98.8132 307.7198 0379744  88.4740 289.3269 14.21895500952868"
      },
      "geometry": {
        "type": "Point",
        "coordinates": [
          -43.68490073492098,
          -42.04432412912338
        ]
      }
    },
    {
      "type": "Feature",
      "properties": {
        "norad_id": 30298,
        "name": "FENGYUN 1C DEB",
        "group": "fengyun-1c-debris",
        "lat": -42.23878184271284,
        "lon": 96.08804137947521,
        "alt_km": 859.1958835749138,
        "timestamp": "2025-12-22T16:55:17.738471+00:00",
        "meta_object_name": "FENGYUN 1C DEB",
        "meta_object_id": "1999-025ZK",
        "meta_epoch": "2025-12-22T05:25:30.332928",
        "meta_mean_motion": 14.2000508,
        "meta_eccentricity": 0.00476133,
        "meta_inclination": 99.0015,
        "meta_ra_of_asc_node": 87.3259,
        "meta_arg_of_pericenter": 101.5085,
        "meta_mean_anomaly": 288.6227,
        "meta_ephemeris_type": 0,
        "meta_classification_type": "U",
        "meta_norad_cat_id": 30298,
        "meta_element_set_no": 999,
        "meta_rev_at_epoch": 96969,
        "meta_bstar": 0.0016935742,
        "meta_mean_motion_dot": 3.599e-05,
        "meta_mean_motion_ddot": 0,
        "tle_line1": "1 30298U 99025ZK  25356.22604552  .00003599  00000+0  16936-2 0  9996",
        "tle_line2": "2 30298  99.0015  87.3259 0047613 101.5085 288.6227 14.20005080969697"
      },
      "geometry": {
        "type": "Point",
        "coordinates": [
          96.08804137947521,
          -42.23878184271284
        ]
      }
    }
  ]
}